M2 PATHFINDER           
1 45727U 20037E   26194.51327424  .00000804  00000+0  61445-4 0  9992
2 45727  97.8145  26.0427 0013053  67.6872 292.5736 15.04788602329458
NETSAT-4                
1 46504U 20068U   26194.49681406  .00010982  00000+0  23716-3 0  9996
2 46504  97.8600 204.8684 0004526 199.6935 160.4138 15.44718994319831
NETSAT-3                
1 46505U 20068V   26194.58776779  .00010762  00000+0  24164-3 0  9999
2 46505  97.8647 203.1515 0003581 217.9354 142.1641 15.43571140319753
NETSAT-1                
1 46506U 20068W   26194.53770812  .00007101  00000+0  21028-3 0  9996
2 46506  97.8748 197.1116 0002408 273.0767  87.0199 15.35221101319343
NETSAT-2                
1 46507U 20068X   26194.49833215  .00014643  00000+0  29073-3 0  9996
2 46507  97.8610 204.8657 0001914 216.6397 143.4721 15.47113865319800
GREENCUBE (IO-117)      
1 53109U 22080E   26193.70867104 -.00000003  00000+0  00000+0 0  9996
2 53109  70.1415 289.3709 0009030 284.1311  75.8345  6.42583319 93700
SITRO-AIS 5 (KATYS)     
1 57176U 23091L   26194.62720321  .00006541  00000+0  22726-3 0  9993
2 57176  97.5053 258.7865 0010810  18.0007 342.1614 15.30042715168389
SITRO-AIS 6 (CHIRKIN)   
1 57192U 23091AC  26194.60244947  .00005954  00000+0  23115-3 0  9994
2 57192  97.5059 257.7384 0011359  22.1423 338.0303 15.26419500168312
SITRO-AIS 8 (ANOKHIN)   
1 57193U 23091AD  26194.59707970  .00008745  00000+0  27794-3 0  9991
2 57193  97.5049 260.4544 0009675  14.0381 346.1128 15.32830273168497
SITRO-AIS 7 (FARTUSHNIY)
1 57194U 23091AE  26194.61110351  .00005202  00000+0  20431-3 0  9992
2 57194  97.5056 257.5582 0011307  23.2855 336.8893 15.26093418168308
SITRO-AIS 10 (BURDAEV)  
1 57199U 23091AK  26194.58018606  .00011482  00000+0  29368-3 0  9998
2 57199  97.5075 265.7696 0005007 348.1639  11.9487 15.39587703168826
SITRO-AIS 9 (SHCHUKIN)  
1 57201U 23091AM  26194.48515186  .00012243  00000+0  31826-3 0  9994
2 57201  97.5074 265.3812 0005266 348.9545  11.1583 15.39071596168799
SITRO-AIS 12 (SMIRENNIY)
1 57204U 23091AQ  26194.60077278  .00011631  00000+0  29960-3 0  9992
2 57204  97.5087 265.9834 0004811 341.2119  18.8948 15.39369913168831
SITRO-AIS 11 (SHEFFER)  
1 57208U 23091AU  26194.60674955  .00012489  00000+0  31689-3 0  9994
2 57208  97.5084 266.2530 0004715 340.5563  19.5502 15.39813126168853
SITRO-AIS 25            
1 59066U 24039R   26194.63889552  .00001834  00000+0  14492-3 0  9990
2 59066  95.3894 253.2697 0142667 235.0215 123.7548 14.93636905128674
SITRO-AIS 26            
1 59067U 24039S   26194.64391190  .00001849  00000+0  14681-3 0  9994
2 59067  95.3894 253.1652 0143007 235.6254 123.1378 14.93429133128660
SITRO-AIS 27            
1 59068U 24039T   26194.60669860  .00001369  00000+0  10844-3 0  9997
2 59068  95.3899 253.4237 0142053 234.2884 124.5057 14.93853709128683
SITRO-AIS 28            
1 59071U 24039U   26194.58355541  .00001926  00000+0  15131-3 0  9999
2 59071  95.3897 253.4566 0141970 234.2038 124.5925 14.93887279128681
GRBBETA                 
1 60237U 24128C   26194.23501684  .00001948  00000+0  14278-3 0  9992
2 60237  61.9896 124.8657 0037305 140.2081 220.1759 15.06800912110196
OOV-CUBE (TUBSAT-30)    
1 60240U 24128F   26194.40407738  .00001077  00000+0  94341-4 0  9993
2 60240  61.9937 134.1487 0041355 139.6220 220.7954 15.02869569110055
ROBUSTA-3A (MEDITERRAN*)
1 60243U 24128J   26194.32672485  .00004545  00000+0  27208-3 0  9990
2 60243  61.9864 115.7855 0038243 133.5898 226.8383 15.11970668110378
LASARSAT                
1 62391U 24247Q   26193.99643288  .00028123  00000+0  53151-3 0  9993
2 62391  44.9747 117.0092 0006976 149.4103 210.7196 15.47948222 87317
CROCUBE                 
1 62394U 24247T   26193.83193797  .00028068  00000+0  49242-3 0  9998
2 62394  44.9714 114.8252 0007253 157.3362 202.7851 15.50071349 87322
FORESAIL-1 PRIME        
1 66778U 25276DS  26194.15202083  .00002951  00000+0  14455-3 0  9997
2 66778  97.4194 266.9496 0003041  49.5627 310.5873 15.18928427 34341
KNACKSAT-2              
1 67683U 98067XZ  26194.27582286  .00036553  00000+0  40980-3 0  9997
2 67683  51.6258 163.0209 0008057 321.9354  38.1070 15.62269029 24352
