OBJECT_NAME,OBJECT_ID,EPOCH,MEAN_MOTION,ECCENTRICITY,INCLINATION,RA_OF_ASC_NODE,ARG_OF_PERICENTER,MEAN_ANOMALY,EPHEMERIS_TYPE,CLASSIFICATION_TYPE,NORAD_CAT_ID,ELEMENT_SET_NO,REV_AT_EPOCH,BSTAR,MEAN_MOTION_DOT,MEAN_MOTION_DDOT
M2 PATHFINDER,2020-037E,2026-07-13T12:19:06.894336,15.04788602,.00130535,97.8145,26.0427,67.6872,292.5736,0,U,45727,999,32945,.61445038E-4,.804E-5,0
NETSAT-4,2020-068U,2026-07-13T11:55:24.734784,15.44718994,.00045266,97.8600,204.8684,199.6935,160.4138,0,U,46504,999,31983,.23716071E-3,.10982E-3,0
NETSAT-3,2020-068V,2026-07-13T14:06:23.137056,15.43571140,.00035813,97.8647,203.1515,217.9354,142.1641,0,U,46505,999,31975,.24164103E-3,.10762E-3,0
NETSAT-1,2020-068W,2026-07-13T12:54:17.981568,15.35221101,.00024088,97.8748,197.1116,273.0767,87.0199,0,U,46506,999,31934,.21028464E-3,.7101E-4,0
NETSAT-2,2020-068X,2026-07-13T11:57:35.897760,15.47113865,.00019146,97.8610,204.8657,216.6397,143.4721,0,U,46507,999,31980,.29073472E-3,.14643E-3,0
GREENCUBE (IO-117),2022-080E,2026-07-12T17:00:29.177856,6.42583319,.00090302,70.1415,289.3709,284.1311,75.8345,0,U,53109,999,9370,0,-.3E-7,0
SITRO-AIS 5 (KATYS),2023-091L,2026-07-13T15:03:10.357344,15.30042715,.00108109,97.5053,258.7865,18.0007,342.1614,0,U,57176,999,16838,.22726444E-3,.6541E-4,0
SITRO-AIS 6 (CHIRKIN),2023-091AC,2026-07-13T14:27:31.634208,15.26419500,.0011359,97.5059,257.7384,22.1423,338.0303,0,U,57192,999,16831,.2311456E-3,.5954E-4,0
SITRO-AIS 8 (ANOKHIN),2023-091AD,2026-07-13T14:19:47.686080,15.32830273,.00096752,97.5049,260.4544,14.0381,346.1128,0,U,57193,999,16849,.27793792E-3,.8745E-4,0
SITRO-AIS 7 (FARTUSHNIY),2023-091AE,2026-07-13T14:39:59.343264,15.26093418,.00113079,97.5056,257.5582,23.2855,336.8893,0,U,57194,999,16830,.20431117E-3,.5202E-4,0
SITRO-AIS 10 (BURDAEV),2023-091AK,2026-07-13T13:55:28.075584,15.39587703,.00050077,97.5075,265.7696,348.1639,11.9487,0,U,57199,999,16882,.293676E-3,.11482E-3,0
SITRO-AIS 9 (SHCHUKIN),2023-091AM,2026-07-13T11:38:37.120704,15.39071596,.00052664,97.5074,265.3812,348.9545,11.1583,0,U,57201,999,16879,.31826014E-3,.12243E-3,0
SITRO-AIS 12 (SMIRENNIY),2023-091AQ,2026-07-13T14:25:06.768192,15.39369913,.00048115,97.5087,265.9834,341.2119,18.8948,0,U,57204,999,16883,.29959792E-3,.11631E-3,0
SITRO-AIS 11 (SHEFFER),2023-091AU,2026-07-13T14:33:43.161120,15.39813126,.00047154,97.5084,266.2530,340.5563,19.5502,0,U,57208,999,16885,.3168931E-3,.12489E-3,0
SITRO-AIS 25,2024-039R,2026-07-13T15:20:00.572928,14.93636905,.01426674,95.3894,253.2697,235.0215,123.7548,0,U,59066,999,12867,.1449158E-3,.1834E-4,0
SITRO-AIS 26,2024-039S,2026-07-13T15:27:13.988160,14.93429133,.01430077,95.3894,253.1652,235.6254,123.1378,0,U,59067,999,12866,.14680802E-3,.1849E-4,0
SITRO-AIS 27,2024-039T,2026-07-13T14:33:38.759040,14.93853709,.01420533,95.3899,253.4237,234.2884,124.5057,0,U,59068,999,12868,.10844208E-3,.1369E-4,0
SITRO-AIS 28,2024-039U,2026-07-13T14:00:19.187424,14.93887279,.01419702,95.3897,253.4566,234.2038,124.5925,0,U,59071,999,12868,.15130621E-3,.1926E-4,0
GRBBETA,2024-128C,2026-07-13T05:38:25.454976,15.06800912,.0037305,61.9896,124.8657,140.2081,220.1759,0,U,60237,999,11019,.14278E-3,.1948E-4,0
OOV-CUBE (TUBSAT-30),2024-128F,2026-07-13T09:41:52.285632,15.02869569,.00413557,61.9937,134.1487,139.6220,220.7954,0,U,60240,999,11005,.94341179E-4,.1077E-4,0
ROBUSTA-3A (MEDITERRANEE),2024-128J,2026-07-13T07:50:29.027040,15.11970668,.00382431,61.9864,115.7855,133.5898,226.8383,0,U,60243,999,11037,.27207715E-3,.4545E-4,0
LASARSAT,2024-247Q,2026-07-12T23:54:51.800832,15.47948222,.00069769,44.9747,117.0092,149.4103,210.7196,0,U,62391,999,8731,.53150637E-3,.28123E-3,0
CROCUBE,2024-247T,2026-07-12T19:57:59.440608,15.50071349,.0007253,44.9714,114.8252,157.3362,202.7851,0,U,62394,999,8732,.49241857E-3,.28068E-3,0
FORESAIL-1 PRIME,2025-276DS,2026-07-13T03:38:54.599712,15.18928427,.00030419,97.4194,266.9496,49.5627,310.5873,0,U,66778,999,3434,.14455425E-3,.2951E-4,0
KNACKSAT-2,1998-067XZ,2026-07-13T06:37:11.095104,15.62269029,.0008057,51.6258,163.0209,321.9354,38.1070,0,U,67683,999,2435,.4098E-3,.36553E-3,0
